NORAD_CAT_ID,OBJECT_NAME,OBJECT_TYPE,EPOCH,MEAN_MOTION,ECCENTRICITY,INCLINATION,RA_OF_ASC_NODE,ARG_OF_PERICENTER,MEAN_ANOMALY,BSTAR,MEAN_MOTION_DOT,MEAN_MOTION_DDOT,TLE_LINE0,TLE_LINE1,TLE_LINE2,SEMIMAJOR_AXIS,PERIOD,APOGEE,PERIGEE,DECAYED
55438.0,STARLINK-5074,PAYLOAD,2024-08-11 21:50:26,14.98326769,0.0002979,69.9995,73.5107,271.1064,88.9754,8.6733e-05,9.42e-06,0.0,0 STARLINK-5074,1 55438U 23014AZ  24224.91002435  .00000942  00000-0  86733-4 0  9999,2 55438  69.9995  73.5107 0002979 271.1064  88.9754 14.98326769 85969,6950.203,96.107,574.138,569.997,0.0
55438.0,STARLINK-5074,PAYLOAD,2024-08-12 07:27:14,14.98334248,0.0002972,69.9998,72.4995,269.7506,90.3313,1.0945e-05,3.8e-07,0.0,0 STARLINK-5074,1 55438U 23014AZ  24225.31058072  .00000038  00000-0  10945-4 0  9990,2 55438  69.9998  72.4995 0002972 269.7506  90.3313 14.98334248 85084,6950.18,96.107,574.11,569.979,0.0
55438.0,STARLINK-5074,PAYLOAD,2024-08-12 13:51:46,14.98310079,0.0002896,70.0007,71.8246,267.043,93.0398,0.00029187,3.389e-05,0.0,0 STARLINK-5074,1 55438U 23014AZ  24225.57762503  .00003389  00000-0  29187-3 0  9998,2 55438  70.0007  71.8246 0002896 267.0430  93.0398 14.98310079 86060,6950.254,96.108,574.132,570.107,0.0
55438.0,STARLINK-5074,PAYLOAD,2024-08-12 21:52:26,14.9833367,0.000234,70.0,70.9801,243.2489,116.843,8.5338e-05,9.26e-06,0.0,0 STARLINK-5074,1 55438U 23014AZ  24225.91141792  .00000926  00000-0  85338-4 0  9992,2 55438  70.0000  70.9801 0002340 243.2489 116.8430 14.98333670 86113,6950.182,96.107,573.673,570.42,0.0
55438.0,STARLINK-5074,PAYLOAD,2024-08-12 23:28:35,14.98303356,0.0002415,70.0013,70.8116,258.2635,101.8253,0.00061814,7.285e-05,0.0,0 STARLINK-5074,1 55438U 23014AZ  24225.97818413  .00007285  00000-0  61814-3 0  9996,2 55438  70.0013  70.8116 0002415 258.2635 101.8253 14.98303356 85188,6950.275,96.109,573.819,570.462,0.0
55438.0,STARLINK-5074,PAYLOAD,2024-08-13 07:29:19,14.98288929,0.0002616,70.0002,69.9758,277.0747,83.0114,-0.00046224,-5.598e-05,0.0,0 STARLINK-5074,1 55438U 23014AZ  24226.31202588 -.00005598  00000-0 -46224-3 0  9990,2 55438  70.0002  69.9758 0002616 277.0747  83.0114 14.98288929 85234,6950.32,96.11,574.003,570.367,0.0
55438.0,STARLINK-5074,PAYLOAD,2024-08-13 13:53:51,14.98284454,0.0003235,69.9999,69.3007,271.7144,88.3645,-0.00039035,-4.742e-05,0.0,0 STARLINK-5074,1 55438U 23014AZ  24226.57907071 -.00004742  00000-0 -39035-3 0  9999,2 55438  69.9999  69.3007 0003235 271.7144  88.3645 14.98284454 86212,6950.334,96.11,574.447,569.95,0.0
55438.0,STARLINK-5074,PAYLOAD,2024-08-13 20:18:21,14.98319087,0.0001954,70.0016,68.6239,267.015,93.0786,-0.00010916,-1.395e-05,0.0,0 STARLINK-5074,1 55438U 23014AZ  24226.84608694 -.00001395  00000-0 -10916-3 0  9996,2 55438  70.0016  68.6239 0001954 267.0150  93.0786 14.98319087 85315,6950.227,96.108,573.45,570.734,0.0
55438.0,STARLINK-5074,PAYLOAD,2024-08-13 21:54:30,14.98316527,0.0002835,70.0019,68.4583,268.5469,91.5366,-0.00010483,-1.343e-05,0.0,0 STARLINK-5074,1 55438U 23014AZ  24226.91284823 -.00001343  00000-0 -10483-3 0  9990,2 55438  70.0019  68.4583 0002835 268.5469  91.5366 14.98316527 86264,6950.235,96.108,574.07,570.129,0.0
55438.0,STARLINK-5074,PAYLOAD,2024-08-14 13:55:50,14.98327604,0.0002831,69.998,66.7751,272.4768,87.6067,-3.9099e-05,-5.59e-06,0.0,0 STARLINK-5074,1 55438U 23014AZ  24227.58044484 -.00000559  00000-0 -39099-4 0  9994,2 55438  69.9980  66.7751 0002831 272.4768  87.6067 14.98327604 86361,6950.2,96.107,574.033,570.098,0.0
55438.0,STARLINK-5074,PAYLOAD,2024-08-14 20:20:22,14.98331971,0.0002982,69.9993,66.1019,269.9168,90.1649,1.9749e-05,1.43e-06,0.0,0 STARLINK-5074,1 55438U 23014AZ  24227.84748102  .00000143  00000-0  19749-4 0  9998,2 55438  69.9993  66.1019 0002982 269.9168  90.1649 14.98331971 85465,6950.187,96.107,574.124,569.979,0.0
55438.0,STARLINK-5074,PAYLOAD,2024-08-14 21:56:30,14.98333426,0.0003091,69.9989,65.9329,270.4031,89.6774,3.9898e-05,3.83e-06,0.0,0 STARLINK-5074,1 55438U 23014AZ  24227.91423916  .00000383  00000-0  39898-4 0  9992,2 55438  69.9989  65.9329 0003091 270.4031  89.6774 14.98333426 86414,6950.182,96.107,574.196,569.899,0.0
55438.0,STARLINK-5074,PAYLOAD,2024-08-15 05:57:10,14.98338521,0.0003151,69.9989,65.0912,270.3683,89.7115,4.9298e-05,4.95e-06,0.0,0 STARLINK-5074,1 55438U 23014AZ  24228.24803529  .00000495  00000-0  49298-4 0  9990,2 55438  69.9989  65.0912 0003151 270.3683  89.7115 14.98338521 86468,6950.167,96.106,574.222,569.842,0.0
55438.0,STARLINK-5074,PAYLOAD,2024-08-15 21:58:30,14.98336922,0.00032,69.9989,63.4077,269.8902,90.189,0.00022332,2.573e-05,0.0,0 STARLINK-5074,1 55438U 23014AZ  24228.91563569  .00002573  00000-0  22332-3 0  9999,2 55438  69.9989  63.4077 0003200 269.8902  90.1890 14.98336922 86564,6950.171,96.107,574.261,569.812,0.0
55438.0,STARLINK-5074,PAYLOAD,2024-08-16 05:59:10,14.98340933,0.0003177,69.999,62.5661,269.2572,90.8223,0.00018376,2.101e-05,0.0,0 STARLINK-5074,1 55438U 23014AZ  24229.24943207  .00002101  00000-0  18376-3 0  9997,2 55438  69.9990  62.5661 0003177 269.2572  90.8223 14.98340933 85670,6950.159,96.106,574.232,569.816,0.0
55438.0,STARLINK-5074,PAYLOAD,2024-08-17 12:25:43,14.98339629,0.000273,69.9988,59.3677,267.317,92.7677,-0.00010768,-1.378e-05,0.0,0 STARLINK-5074,1 55438U 23014AZ  24230.51786952 -.00001378  00000-0 -10768-3 0  9995,2 55438  69.9988  59.3677 0002730 267.3170  92.7677 14.98339629 85860,6950.163,96.106,573.926,570.131,0.0
55438.0,STARLINK-5074,PAYLOAD,2024-08-17 22:02:32,14.98336703,0.0003065,69.9995,58.3566,269.1989,90.8818,-0.00015208,-1.907e-05,0.0,0 STARLINK-5074,1 55438U 23014AZ  24230.91842966 -.00001907  00000-0 -15208-3 0  9999,2 55438  69.9995  58.3566 0003065 269.1989  90.8818 14.98336703 86861,6950.172,96.107,574.167,569.907,0.0
55438.0,STARLINK-5074,PAYLOAD,2024-08-18 12:27:44,14.98338508,0.000361,69.9906,56.8377,276.284,83.7908,-8.4055e-05,-1.096e-05,0.0,0 STARLINK-5074,1 55438U 23014AZ  24231.51926161 -.00001096  00000-0 -84055-4 0  9992,2 55438  69.9906  56.8377 0003610 276.2840  83.7908 14.98338508 86010,6950.167,96.106,574.541,569.523,0.0
55438.0,STARLINK-5074,PAYLOAD,2024-08-18 22:04:31,14.98338432,0.0003247,69.9996,55.8331,271.7849,88.2938,8.2172e-05,8.88e-06,0.0,0 STARLINK-5074,1 55438U 23014AZ  24231.91981427  .00000888  00000-0  82172-4 0  9996,2 55438  69.9996  55.8331 0003247 271.7849  88.2938 14.98338432 87013,6950.167,96.106,574.289,569.775,0.0
55438.0,STARLINK-5074,PAYLOAD,2024-08-19 06:05:12,14.98331633,0.0003263,69.9999,54.9916,272.7394,87.3391,1.6783e-05,1.07e-06,0.0,0 STARLINK-5074,1 55438U 23014AZ  24232.25361925  .00000107  00000-0  16783-4 0  9998,2 55438  69.9999  54.9916 0003263 272.7394  87.3391 14.98331633 87063,6950.188,96.107,574.321,569.785,0.0
55438.0,STARLINK-5074,PAYLOAD,2024-08-19 22:06:33,14.98324701,0.0003052,70.0001,53.3078,270.2362,89.8448,-6.3568e-06,-1.69e-06,0.0,0 STARLINK-5074,1 55438U 23014AZ  24232.92122488 -.00000169  00000-0 -63568-5 0  9995,2 55438  70.0001  53.3078 0003052 270.2362  89.8448 14.98324701 86221,6950.209,96.107,574.195,569.953,0.0
55438.0,STARLINK-5074,PAYLOAD,2024-08-20 12:31:46,14.98330938,0.0003229,70.0012,51.7923,266.9625,93.1164,-2.0535e-05,-3.38e-06,0.0,0 STARLINK-5074,1 55438U 23014AZ  24233.52206035 -.00000338  00000-0 -20535-4 0  9997,2 55438  70.0012  51.7923 0003229 266.9625  93.1164 14.98330938 86316,6950.19,96.107,574.299,569.811,0.0
55438.0,STARLINK-5074,PAYLOAD,2024-08-20 14:07:54,14.98334584,0.0003035,70.0002,51.6248,270.6002,89.4809,-3.7894e-05,-5.45e-06,0.0,0 STARLINK-5074,1 55438U 23014AZ  24233.58881947 -.00000545  00000-0 -37894-4 0  9990,2 55438  70.0002  51.6248 0003035 270.6002  89.4809 14.98334584 87260,6950.179,96.107,574.153,569.934,0.0
55438.0,STARLINK-5074,PAYLOAD,2024-08-21 12:33:47,14.98325319,0.000289,70.0003,49.2681,269.8888,90.194,1.1679e-05,4.6e-07,0.0,0 STARLINK-5074,1 55438U 23014AZ  24234.52346352  .00000046  00000-0  11679-4 0  9998,2 55438  70.0003  49.2681 0002890 269.8888  90.1940 14.98325319 86467,6950.207,96.107,574.081,570.064,0.0
55438.0,STARLINK-5074,PAYLOAD,2024-08-21 14:09:55,14.98324812,0.0002914,70.0002,49.0999,270.2037,89.8788,5.9822e-06,-2.2e-07,0.0,0 STARLINK-5074,1 55438U 23014AZ  24234.59022412 -.00000022  00000-0  59822-5 0  9991,2 55438  70.0002  49.0999 0002914 270.2037  89.8788 14.98324812 87413,6950.209,96.107,574.099,570.049,0.0
55438.0,STARLINK-5074,PAYLOAD,2024-08-21 20:34:27,14.98326804,0.0002878,70.0003,48.4275,265.1114,94.9716,-3.7271e-05,-5.38e-06,0.0,0 STARLINK-5074,1 55438U 23014AZ  24234.85726477 -.00000538  00000-0 -37271-4 0  9998,2 55438  70.0003  48.4275 0002878 265.1114  94.9716 14.98326804 87457,6950.203,96.107,574.068,570.068,0.0
